[{"OBJECT_NAME":"IRIDIUM 157","OBJECT_ID":"2018-030C","EPOCH":"2026-03-09T18:23:07.333440","MEAN_MOTION":14.34217888,"ECCENTRICITY":0.00021073,"INCLINATION":86.4009,"RA_OF_ASC_NODE":332.0022,"ARG_OF_PERICENTER":83.0005,"MEAN_ANOMALY":277.143,"EPHEMERIS_TYPE":0,"CLASSIFICATION_TYPE":"U","NORAD_CAT_ID":43251,"ELEMENT_SET_NO":999,"REV_AT_EPOCH":41588,"BSTAR":0.00012008452,"MEAN_MOTION_DOT":3.56e-6,"MEAN_MOTION_DDOT":0},{"OBJECT_NAME":"FENGYUN 1C DEB","OBJECT_ID":"1999-025BZH","EPOCH":"2026-03-09T20:22:23.869632","MEAN_MOTION":14.38621263,"ECCENTRICITY":0.00258598,"INCLINATION":98.9398,"RA_OF_ASC_NODE":136.3323,"ARG_OF_PERICENTER":103.4212,"MEAN_ANOMALY":325.3227,"EPHEMERIS_TYPE":0,"CLASSIFICATION_TYPE":"U","NORAD_CAT_ID":31566,"ELEMENT_SET_NO":999,"REV_AT_EPOCH":97643,"BSTAR":0.001937186,"MEAN_MOTION_DOT":5.913e-5,"MEAN_MOTION_DDOT":0}]
